[{"OBJECT_NAME":"JILIN-1 GAOFEN 3A","OBJECT_ID":"2019-032C","EPOCH":"2026-03-09T17:53:24.364896","MEAN_MOTION":15.3027131,"ECCENTRICITY":0.00026181,"INCLINATION":44.9746,"RA_OF_ASC_NODE":183.2861,"ARG_OF_PERICENTER":111.29,"MEAN_ANOMALY":248.8263,"EPHEMERIS_TYPE":0,"CLASSIFICATION_TYPE":"U","NORAD_CAT_ID":44312,"ELEMENT_SET_NO":999,"REV_AT_EPOCH":37259,"BSTAR":0.00055381133,"MEAN_MOTION_DOT":0.00016264,"MEAN_MOTION_DDOT":0},{"OBJECT_NAME":"STARLINK-32855","OBJECT_ID":"2025-018H","EPOCH":"2026-03-09T21:26:08.431296","MEAN_MOTION":15.30217575,"ECCENTRICITY":0.00012194,"INCLINATION":53.157,"RA_OF_ASC_NODE":308.3608,"ARG_OF_PERICENTER":121.6526,"MEAN_ANOMALY":238.4594,"EPHEMERIS_TYPE":0,"CLASSIFICATION_TYPE":"U","NORAD_CAT_ID":62813,"ELEMENT_SET_NO":999,"REV_AT_EPOCH":6320,"BSTAR":0.001039073,"MEAN_MOTION_DOT":0.00030559,"MEAN_MOTION_DDOT":0}]
